MALLIGYONG-1            
1 58400U 23179A   24091.60679847  .00007070  00000+0  31513-3 0  9991
2 58400  97.4138 339.6164 0010018 164.1479 196.0072 15.21686917 19927
